[{"OBJECT_NAME":"LYNK TOWER 4","OBJECT_ID":"2023-001AB","EPOCH":"2026-03-09T16:15:30.644928","MEAN_MOTION":15.31819885,"ECCENTRICITY":0.00103213,"INCLINATION":97.3324,"RA_OF_ASC_NODE":128.594,"ARG_OF_PERICENTER":112.3386,"MEAN_ANOMALY":247.895,"EPHEMERIS_TYPE":0,"CLASSIFICATION_TYPE":"U","NORAD_CAT_ID":55034,"ELEMENT_SET_NO":999,"REV_AT_EPOCH":17658,"BSTAR":0.00030013829,"MEAN_MOTION_DOT":9.16e-5,"MEAN_MOTION_DDOT":0},{"OBJECT_NAME":"DELTA 1 DEB","OBJECT_ID":"1977-065GB","EPOCH":"2026-03-09T02:53:34.268064","MEAN_MOTION":14.47196386,"ECCENTRICITY":0.03689655,"INCLINATION":29.1068,"RA_OF_ASC_NODE":351.8301,"ARG_OF_PERICENTER":308.0029,"MEAN_ANOMALY":48.7782,"EPHEMERIS_TYPE":0,"CLASSIFICATION_TYPE":"U","NORAD_CAT_ID":19429,"ELEMENT_SET_NO":999,"REV_AT_EPOCH":87217,"BSTAR":0.0013714479,"MEAN_MOTION_DOT":0.0001237,"MEAN_MOTION_DDOT":0}]
